NORAD_CAT_ID,OBJECT_NAME,OBJECT_TYPE,EPOCH,MEAN_MOTION,ECCENTRICITY,INCLINATION,RA_OF_ASC_NODE,ARG_OF_PERICENTER,MEAN_ANOMALY,BSTAR,MEAN_MOTION_DOT,MEAN_MOTION_DDOT,TLE_LINE0,TLE_LINE1,TLE_LINE2,SEMIMAJOR_AXIS,PERIOD,APOGEE,PERIGEE,DECAYED
54004.0,STARLINK-5129,PAYLOAD,2023-09-14 12:13:40,15.0881171,0.0001261,53.2166,326.2939,76.2775,283.8358,-0.00032244,-5.412e-05,0.0,0 STARLINK-5129,1 54004U 22125AS  23257.50949230 -.00005412  00000-0 -32244-3 0  9998,2 54004  53.2166 326.2939 0001261  76.2775 283.8358 15.08811710 52518,6917.967,95.439,540.704,538.96,0.0
54004.0,STARLINK-5129,PAYLOAD,2023-09-14 13:49:03,15.08813443,0.0001278,53.2166,325.9966,75.4289,284.6845,-0.00018327,-3.201e-05,0.0,0 STARLINK-5129,1 54004U 22125AS  23257.57573366 -.00003201  00000-0 -18327-3 0  9998,2 54004  53.2166 325.9966 0001278  75.4289 284.6845 15.08813443 52529,6917.962,95.439,540.711,538.942,0.0
54004.0,STARLINK-5129,PAYLOAD,2023-09-14 21:45:59,15.0881382,0.0001355,53.2164,324.5107,72.4103,287.7037,0.00066801,0.00010352,0.0,0 STARLINK-5129,1 54004U 22125AS  23257.90694131  .00010352  00000-0  66801-3 0  9992,2 54004  53.2164 324.5107 0001355  72.4103 287.7037 15.08813820 52624,6917.96,95.439,540.763,538.888,0.0
54004.0,STARLINK-5129,PAYLOAD,2023-09-15 10:29:05,15.08840779,0.0001461,53.2161,322.1325,68.6016,291.5132,0.0015079,0.00023792,0.0,0 STARLINK-5129,1 54004U 22125AS  23258.43686632  .00023792  00000-0  15079-2 0  9990,2 54004  53.2161 322.1325 0001461  68.6016 291.5132 15.08840779 52706,6917.878,95.438,540.754,538.732,0.0
54004.0,STARLINK-5129,PAYLOAD,2023-09-15 12:04:28,15.08840046,0.0001454,53.216,321.8352,67.937,292.1776,0.0012088,0.00019002,0.0,0 STARLINK-5129,1 54004U 22125AS  23258.50310623  .00019002  00000-0  12088-2 0  9998,2 54004  53.2160 321.8352 0001454  67.9370 292.1776 15.08840046 52661,6917.88,95.438,540.751,538.739,0.0
54004.0,STARLINK-5129,PAYLOAD,2023-09-15 21:36:47,15.08854117,0.0001476,53.2159,320.0508,67.7157,292.3991,0.0011681,0.00018358,0.0,0 STARLINK-5129,1 54004U 22125AS  23258.90054420  .00018358  00000-0  11681-2 0  9993,2 54004  53.2159 320.0508 0001476  67.7157 292.3991 15.08854117 52775,6917.837,95.437,540.723,538.681,0.0
54004.0,STARLINK-5129,PAYLOAD,2023-09-16 11:55:14,15.08870805,0.0001519,53.2161,317.3745,68.0583,292.0571,0.0009892,0.00015503,0.0,0 STARLINK-5129,1 54004U 22125AS  23259.49669522  .00015503  00000-0  98920-3 0  9994,2 54004  53.2161 317.3745 0001519  68.0583 292.0571 15.08870805 52813,6917.786,95.436,540.702,538.6,0.0
54004.0,STARLINK-5129,PAYLOAD,2023-09-16 21:27:32,15.08865241,0.0001494,53.2161,315.5898,72.1222,287.9933,0.00054875,8.462e-05,0.0,0 STARLINK-5129,1 54004U 22125AS  23259.89413162  .00008462  00000-0  54875-3 0  9992,2 54004  53.2161 315.5898 0001494  72.1222 287.9933 15.08865241 52925,6917.803,95.436,540.702,538.635,0.0
54004.0,STARLINK-5129,PAYLOAD,2023-09-17 10:10:37,15.08857097,0.0001469,53.2168,313.2092,93.4307,266.6853,0.0002544,3.765e-05,0.0,0 STARLINK-5129,1 54004U 22125AS  23260.42404940  .00003765  00000-0  25440-3 0  9994,2 54004  53.2168 313.2092 0001469  93.4307 266.6853 15.08857097 53000,6917.828,95.436,540.709,538.677,0.0
54004.0,STARLINK-5129,PAYLOAD,2023-09-18 08:26:01,15.08851584,0.0001685,53.217,309.0457,88.8626,271.2559,-5.6407e-06,-3.78e-06,0.0,0 STARLINK-5129,1 54004U 22125AS  23261.35140634 -.00000378  00000-0 -56407-5 0  9992,2 54004  53.2170 309.0457 0001685  88.8626 271.2559 15.08851584 53148,6917.845,95.437,540.876,538.544,0.0
54004.0,STARLINK-5129,PAYLOAD,2023-09-18 11:36:47,15.08852044,0.0001653,53.2173,308.4495,101.553,258.5648,-1.507e-05,-5.28e-06,0.0,0 STARLINK-5129,1 54004U 22125AS  23261.48388439 -.00000528  00000-0 -15070-4 0  9990,2 54004  53.2173 308.4495 0001653 101.5530 258.5648 15.08852044 53114,6917.844,95.437,540.852,538.565,0.0
54004.0,STARLINK-5129,PAYLOAD,2023-09-18 19:33:43,15.08848104,0.0001612,53.2173,306.963,95.3165,264.8011,-3.8066e-05,-8.94e-06,0.0,0 STARLINK-5129,1 54004U 22125AS  23261.81508497 -.00000894  00000-0 -38066-4 0  9991,2 54004  53.2173 306.9630 0001612  95.3165 264.8011 15.08848104 53168,6917.856,95.437,540.836,538.605,0.0
54004.0,STARLINK-5129,PAYLOAD,2023-09-19 13:02:57,15.08851924,0.0001678,53.2172,303.6914,92.4617,267.6567,0.0001681,2.389e-05,0.0,0 STARLINK-5129,1 54004U 22125AS  23262.54371982  .00002389  00000-0  16810-3 0  9990,2 54004  53.2172 303.6914 0001678  92.4617 267.6567 15.08851924 53327,6917.844,95.437,540.87,538.548,0.0
54004.0,STARLINK-5129,PAYLOAD,2023-09-20 03:21:26,15.08831687,0.000198,53.2163,301.0131,109.2118,250.9089,-9.3613e-05,-1.777e-05,0.0,0 STARLINK-5129,1 54004U 22125AS  23263.13989157 -.00001777  00000-0 -93613-4 0  9994,2 54004  53.2163 301.0131 0001980 109.2118 250.9089 15.08831687 53417,6917.906,95.438,541.141,538.401,0.0
54004.0,STARLINK-5129,PAYLOAD,2023-09-20 11:18:22,15.08830979,0.0001504,53.2164,299.5307,92.8222,267.2942,-8.5396e-05,-1.646e-05,0.0,0 STARLINK-5129,1 54004U 22125AS  23263.47109410 -.00001646  00000-0 -85396-4 0  9991,2 54004  53.2164 299.5307 0001504  92.8222 267.2942 15.08830979 53411,6917.908,95.438,540.813,538.733,0.0
54004.0,STARLINK-5129,PAYLOAD,2023-09-20 19:15:18,15.08831001,0.0001483,53.2165,298.0439,93.7274,266.3888,-5.1009e-05,-1.099e-05,0.0,0 STARLINK-5129,1 54004U 22125AS  23263.80229589 -.00001099  00000-0 -51009-4 0  9994,2 54004  53.2165 298.0439 0001483  93.7274 266.3888 15.08831001 53466,6917.908,95.438,540.799,538.747,0.0
54004.0,STARLINK-5129,PAYLOAD,2023-09-21 09:33:46,15.08835536,0.0001487,53.2161,295.3681,97.9888,262.1273,7.5578e-05,9.15e-06,0.0,0 STARLINK-5129,1 54004U 22125AS  23264.39845734  .00000915  00000-0  75578-4 0  9996,2 54004  53.2161 295.3681 0001487  97.9888 262.1273 15.08835536 53607,6917.894,95.438,540.788,538.73,0.0
54004.0,STARLINK-5129,PAYLOAD,2023-09-21 11:09:09,15.0883701,0.0001512,53.2163,295.0709,98.8277,261.2886,0.0001284,1.756e-05,0.0,0 STARLINK-5129,1 54004U 22125AS  23264.46469734  .00001756  00000-0  12840-3 0  9992,2 54004  53.2163 295.0709 0001512  98.8277 261.2886 15.08837010 53562,6917.89,95.438,540.801,538.709,0.0
54004.0,STARLINK-5129,PAYLOAD,2023-09-21 19:06:05,15.08839582,0.0001521,53.2165,293.5839,93.4454,266.6712,0.00022947,3.366e-05,0.0,0 STARLINK-5129,1 54004U 22125AS  23264.79589874  .00003366  00000-0  22947-3 0  9994,2 54004  53.2165 293.5839 0001521  93.4454 266.6712 15.08839582 53618,6917.882,95.438,540.799,538.694,0.0
54004.0,STARLINK-5129,PAYLOAD,2023-09-22 09:24:33,15.08848455,0.0001514,53.2161,290.9076,94.8264,265.2901,0.00042456,6.477e-05,0.0,0 STARLINK-5129,1 54004U 22125AS  23265.39205781  .00006477  00000-0  42456-3 0  9996,2 54004  53.2161 290.9076 0001514  94.8264 265.2901 15.08848455 53708,6917.855,95.437,540.767,538.672,0.0
54004.0,STARLINK-5129,PAYLOAD,2023-09-22 18:56:52,15.08844622,0.0001614,53.2164,289.1214,88.4724,271.6453,0.00024776,3.658e-05,0.0,0 STARLINK-5129,1 54004U 22125AS  23265.78949899  .00003658  00000-0  24776-3 0  9997,2 54004  53.2164 289.1214 0001614  88.4724 271.6453 15.08844622 53767,6917.866,95.437,540.848,538.615,0.0
54004.0,STARLINK-5129,PAYLOAD,2023-09-23 09:15:20,15.08846293,0.0001579,53.216,286.4461,88.7174,271.3999,0.00019523,2.821e-05,0.0,0 STARLINK-5129,1 54004U 22125AS  23266.38565805  .00002821  00000-0  19523-3 0  9990,2 54004  53.2160 286.4461 0001579  88.7174 271.3999 15.08846293 53857,6917.861,95.437,540.818,538.634,0.0
54004.0,STARLINK-5129,PAYLOAD,2023-09-24 01:09:12,15.08843421,0.0001476,53.2152,283.4721,98.0103,262.1056,0.00012487,1.7e-05,0.0,0 STARLINK-5129,1 54004U 22125AS  23267.04805810  .00001700  00000-0  12487-3 0  9994,2 54004  53.2152 283.4721 0001476  98.0103 262.1056 15.08843421 54006,6917.87,95.437,540.756,538.714,0.0
54004.0,STARLINK-5129,PAYLOAD,2023-09-24 10:41:30,15.08848395,0.0001487,53.215,281.6884,99.5624,260.5536,0.0002099,3.055e-05,0.0,0 STARLINK-5129,1 54004U 22125AS  23267.44549580  .00003055  00000-0  20990-3 0  9990,2 54004  53.2150 281.6884 0001487  99.5624 260.5536 15.08848395 54011,6917.855,95.437,540.748,538.691,0.0
54004.0,STARLINK-5129,PAYLOAD,2023-09-25 07:21:31,15.08849689,0.0001552,53.2146,277.8186,92.9613,267.1557,0.00030194,4.522e-05,0.0,0 STARLINK-5129,1 54004U 22125AS  23268.30661734  .00004522  00000-0  30194-3 0  9999,2 54004  53.2146 277.8186 0001552  92.9613 267.1557 15.08849689 54198,6917.851,95.437,540.789,538.642,0.0
54004.0,STARLINK-5129,PAYLOAD,2023-09-25 10:32:17,15.08847528,0.0001501,53.2152,277.2242,91.2004,268.916,0.00021906,3.201e-05,0.0,0 STARLINK-5129,1 54004U 22125AS  23268.43909698  .00003201  00000-0  21906-3 0  9991,2 54004  53.2152 277.2242 0001501  91.2004 268.9160 15.08847528 54168,6917.857,95.437,540.761,538.684,0.0
54004.0,STARLINK-5129,PAYLOAD,2023-09-26 00:50:46,15.08839771,0.0001515,53.2148,274.5492,92.913,267.2036,0.00010168,1.331e-05,0.0,0 STARLINK-5129,1 54004U 22125AS  23269.03526047  .00001331  00000-0  10168-3 0  9991,2 54004  53.2148 274.5492 0001515  92.9130 267.2036 15.08839771 54304,6917.881,95.438,540.794,538.698,0.0
54004.0,STARLINK-5129,PAYLOAD,2023-09-26 05:36:55,15.08840656,0.0001512,53.2149,273.6573,92.0742,268.0423,0.00011043,1.47e-05,0.0,0 STARLINK-5129,1 54004U 22125AS  23269.23398005  .00001470  00000-0  11043-3 0  9991,2 54004  53.2149 273.6573 0001512  92.0742 268.0423 15.08840656 54282,6917.878,95.438,540.789,538.697,0.0
54004.0,STARLINK-5129,PAYLOAD,2023-09-27 00:41:33,15.08834397,0.0001471,53.2138,270.0888,88.5398,271.5762,1.5321e-05,-4.4e-07,0.0,0 STARLINK-5129,1 54004U 22125AS  23270.02886444 -.00000044  00000-0  15321-4 0  9990,2 54004  53.2138 270.0888 0001471  88.5398 271.5762 15.08834397 54450,6917.898,95.438,540.78,538.745,0.0
54004.0,STARLINK-5129,PAYLOAD,2023-09-27 10:13:52,15.08836173,0.0001385,53.2159,268.3069,91.6531,268.462,-1.5157e-05,-5.29e-06,0.0,0 STARLINK-5129,1 54004U 22125AS  23270.42630727 -.00000529  00000-0 -15157-4 0  9991,2 54004  53.2159 268.3069 0001385  91.6531 268.4620 15.08836173 54465,6917.892,95.438,540.715,538.799,0.0
